STARLINK-3151           
1 49408U 21104A   22275.78735724 -.00000027  00000+0  16388-4 0  9993
2 49408  53.2163  98.1118 0001940  47.9623 312.1534 15.08839055 49332
STARLINK-3075           
1 49409U 21104B   22275.80208094 -.00001444  00000+0 -72664-4 0  9996
2 49409  53.2155  98.0476 0001789  53.4264 306.6893 15.08832461 49345
STARLINK-3147           
1 49410U 21104C   22276.12591022  .00002893  00000+0  19975-3 0  9992
2 49410  53.2149  96.5974 0001862  56.0830 304.0339 15.08853265 50463
STARLINK-3162           
1 49411U 21104D   22276.18571504  .00001386  00000+0  10515-3 0  9999
2 49411  53.2173  86.3279 0001968  46.6488 313.4668 15.08850080 50615
STARLINK-3144           
1 49412U 21104E   22275.79839557 -.00000112  00000+0  11058-4 0  9992
2 49412  53.2166  98.0636 0001471  64.9784 295.1360 15.08837675 50436
STARLINK-3157           
1 49413U 21104F   22276.18203300 -.00000025  00000+0  16555-4 0  9998
2 49413  53.2165  86.3385 0001699  44.0293 316.0834 15.08853312 50629
STARLINK-3146           
1 49414U 21104G   22275.79104084 -.00001004  00000+0 -44982-4 0  9998
2 49414  53.2158  98.0912 0001918  50.3970 309.7191 15.08830845 50423
STARLINK-3159           
1 49415U 21104H   22276.17835516  .00001188  00000+0  92726-4 0  9993
2 49415  53.2166  86.3565 0002145  44.1282 315.9881 15.08845100 50613
STARLINK-3133           
1 49416U 21104J   22275.78367173  .00001767  00000+0  12908-3 0  9995
2 49416  53.2156  98.1170 0001588  56.1774 303.9369 15.08844821 49339
STARLINK-3154           
1 49417U 21104K   22275.84347716 -.00001390  00000+0 -69224-4 0  9992
2 49417  53.2149  87.8595 0002024  39.9857 320.1284 15.08833138 49476
STARLINK-3111           
1 49418U 21104L   22275.77999246  .00000882  00000+0  73523-4 0  9996
2 49418  53.2166  98.1481 0001912  50.7771 309.3390 15.08844948 49328
STARLINK-3120           
1 49419U 21104M   22275.83519591  .00000395  00000+0  42895-4 0  9992
2 49419  53.2166  97.9025 0001733  56.2713 303.8444 15.08842096 49330
STARLINK-3110           
1 49420U 21104N   22275.77632291  .00000715  00000+0  63004-4 0  9991
2 49420  53.2162  98.1544 0001617  56.4530 303.6616 15.08837490 49327
STARLINK-3112           
1 49421U 21104P   22275.82784891  .00000111  00000+0  25105-4 0  9992
2 49421  53.2158  97.9339 0001896  46.6128 313.5022 15.08835671 49336
STARLINK-3161           
1 49422U 21104Q   22276.10384558  .00005595  00000+0  36919-3 0  9996
2 49422  53.2157  96.6966 0001818  49.9786 310.1365 15.08856661 50470
STARLINK-3149           
1 49423U 21104R   22275.82048503 -.00001088  00000+0 -50278-4 0  9992
2 49423  53.2164  97.9696 0001618  55.0082 305.1062 15.08833918 49339
STARLINK-3135           
1 49424U 21104S   22275.89775477  .00000148  00000+0  27424-4 0  9998
2 49424  53.2157  97.6180 0001618  64.4055 295.7104 15.08843236 50428
STARLINK-3139           
1 49425U 21104T   22275.81680703 -.00001489  00000+0 -75507-4 0  9994
2 49425  53.2172  97.9824 0001855  50.1506 309.9649 15.08834889 49345
STARLINK-3114           
1 49426U 21104U   22275.82416476  .00003708  00000+0  25082-3 0  9996
2 49426  53.2167  97.9548 0001703  55.2958 304.8194 15.08855643 49331
STARLINK-3131           
1 49427U 21104V   22275.81312627  .00001865  00000+0  13527-3 0  9992
2 49427  53.2169  98.0056 0001779  49.5637 310.5510 15.08834263 49345
STARLINK-3121           
1 49428U 21104W   22276.20048206 -.00000776  00000+0 -30646-4 0  9990
2 49428  53.2164  96.2594 0001631  49.2655 310.8478 15.08832727 50477
STARLINK-3138           
1 49430U 21104Y   22275.80944781 -.00001420  00000+0 -71131-4 0  9992
2 49430  53.2168  98.0201 0001607  61.9221 298.1934 15.08833642 49348
STARLINK-3153           
1 49431U 21104Z   22275.83615122  .00001217  00000+0  94548-4 0  9999
2 49431  53.2173  97.8894 0001519  72.9210 287.1949 15.08840454 49345
STARLINK-3158           
1 49432U 21104AA  22276.17196391  .00001445  00000+0  10888-3 0  9997
2 49432  53.2155  86.3772 0002246  40.1385 319.9773 15.08847330 50613
STARLINK-3079           
1 49433U 21104AB  22276.17191181  .00001828  00000+0  13287-3 0  9991
2 49433  53.2181  76.3812 0002308  37.4418 322.6735 15.08851106 50763
STARLINK-3134           
1 49434U 21104AC  22275.80576273  .00004682  00000+0  31191-3 0  9995
2 49434  53.2166  98.0401 0001731  53.3205 306.7946 15.08857117 50420
STARLINK-3117           
1 49435U 21104AD  22276.17653653 -.00004118  00000+0 -24055-3 0  9992
2 49435  53.2160  76.3596 0001653  47.5801 312.5331 15.08877697 50753
STARLINK-3049           
1 49436U 21104AE  22276.17559307  .00000973  00000+0  79176-4 0  9992
2 49436  53.2187  76.3579 0001637  56.3956 303.7192 15.08848881 50744
STARLINK-3130           
1 49437U 21104AF  22276.16822418  .00001000  00000+0  80890-4 0  9995
2 49437  53.2172  76.4075 0001928  43.0999 317.0143 15.08853549 50745
STARLINK-3044           
1 49438U 21104AG  22275.76712632  .00000424  00000+0  44741-4 0  9991
2 49438  53.2175  78.2039 0001590  55.5935 304.5208 15.08831087 49612
STARLINK-3108           
1 49439U 21104AH  22275.81495844 -.00000170  00000+0  74553-5 0  9995
2 49439  53.2167  77.9949 0002044  45.3562 314.7596 15.08837665 49620
STARLINK-3105           
1 49440U 21104AJ  22275.82968536  .00000047  00000+0  21091-4 0  9991
2 49440  53.2159  77.9291 0002097  39.0356 321.0787 15.08844039 49628
STARLINK-3128           
1 49441U 21104AK  22275.81127421  .00000877  00000+0  73174-4 0  9991
2 49441  53.2169  78.0105 0001770  52.1711 307.9441 15.08845108 49622
STARLINK-3098           
1 49442U 21104AL  22275.82600097  .00000566  00000+0  53663-4 0  9994
2 49442  53.2176  77.9377 0001788  47.5294 312.5849 15.08843253 49626
STARLINK-3136           
1 49443U 21104AM  22275.80760003 -.00001444  00000+0 -72608-4 0  9995
2 49443  53.2157  78.0206 0001887  47.4662 312.6490 15.08842919 49628
STARLINK-3126           
1 49444U 21104AN  22275.75608035 -.00002427  00000+0 -13445-3 0  9991
2 49444  53.2158  78.2537 0001923  46.6826 313.4326 15.08830703 49617
STARLINK-3122           
1 49445U 21104AP  22276.16731998 -.00000638  00000+0 -21992-4 0  9992
2 49445  53.2165  86.4079 0001637  56.6885 303.4264 15.08838324 50615
STARLINK-3099           
1 49446U 21104AQ  22275.81864258  .00001619  00000+0  11980-3 0  9993
2 49446  53.2159  77.9721 0001499  70.0531 290.0622 15.08846191 49621
STARLINK-3115           
1 49447U 21104AR  22275.89500502  .00002061  00000+0  14749-3 0  9999
2 49447  53.2152  87.6282 0001705  55.1141 305.0011 15.08849485 50569
STARLINK-3097           
1 49448U 21104AS  22275.83979807  .00013262  00000+0  84960-3 0  9999
2 49448  53.2160  87.8741 0002173  40.1174 319.9978 15.08846589 49488
STARLINK-3137           
1 49449U 21104AT  22275.82507850 -.00001263  00000+0 -61265-4 0  9998
2 49449  53.2153  87.9447 0001739  51.3733 308.7415 15.08835090 49484
STARLINK-3127           
1 49450U 21104AU  22275.83244253  .00000123  00000+0  25818-4 0  9992
2 49450  53.2158  87.9006 0002016  43.1115 317.0034 15.08830561 49741
STARLINK-3125           
1 49451U 21104AV  22275.75515994 -.00001420  00000+0 -71148-4 0  9997
2 49451  53.2161  88.2590 0001832  46.7613 313.3532 15.08834771 49474
STARLINK-3150           
1 49452U 21104AW  22275.80764293  .00000363  00000+0  40910-4 0  9998
2 49452  53.2170  88.0200 0001574  49.7006 310.4123 15.08840073 49480
STARLINK-3129           
1 49453U 21104AX  22275.81404113  .00001363  00000+0  10373-3 0  9992
2 49453  53.2168  87.9924 0001771  47.5697 312.5445 15.08837804 49488
STARLINK-3160           
1 49454U 21104AY  22275.81772568  .00004774  00000+0  31773-3 0  9991
2 49454  53.2150  87.9786 0001442  70.8698 289.2450 15.08854460 49484
STARLINK-3145           
1 49455U 21104AZ  22276.20042700  .00001345  00000+0  10257-3 0  9999
2 49455  53.2184  86.2536 0002032  43.6439 316.4713 15.08853699 50619
STARLINK-3124           
1 49456U 21104BA  22276.14155433  .00006534  00000+0  42807-3 0  9992
2 49456  53.2150  86.5240 0001831  46.7090 313.4055 15.08855238 50607
STARLINK-3132           
1 49457U 21104BB  22275.79931425  .00002020  00000+0  14499-3 0  9998
2 49457  53.2188  88.0688 0001579  56.3498 303.7644 15.08841956 50552
STARLINK-3156           
1 49458U 21104BC  22275.80668446  .00000753  00000+0  65380-4 0  9998
2 49458  53.2174  88.0324 0001825  47.9851 312.1296 15.08846288 50569
STARLINK-3141           
1 49459U 21104BD  22275.79564771 -.00001658  00000+0 -86103-4 0  9996
2 49459  53.2164  88.0776 0001507  57.3179 302.7959 15.08833132 50559
STARLINK-3140           
1 49460U 21104BE  22276.18937676 -.00012810  00000+0 -78683-3 0  9995
2 49460  53.2163  86.3152 0001521  67.3258 292.7895 15.08901217 50629
